FLOCK 4G-25             
1 62646U 25009AP  26188.79659502  .00007294  00000+0  25453-3 0  9991
2 62646  97.4007 270.7887 0001710 181.0094 179.1143 15.29904182 82078
FLOCK 4G-23             
1 62647U 25009AQ  26188.72927532  .00027230  00000+0  81926-3 0  9995
2 62647  97.3923 270.4042 0002752 187.1924 172.9279 15.34341441 82071
FLOCK 4G-34             
1 62650U 25009AT  26188.79988235  .00006516  00000+0  22926-3 0  9992
2 62650  97.3956 270.2863 0001665 181.3894 178.7342 15.29676479 82064
FLOCK 4G-21             
1 62651U 25009AU  26188.47211140  .00026346  00000+0  84029-3 0  9997
2 62651  97.3986 270.9260 0002412 213.2925 146.8165 15.32490105 82060
FLOCK 4G-31             
1 62652U 25009AV  26188.76342051  .00007024  00000+0  24839-3 0  9991
2 62652  97.3963 270.2235 0001219 170.7703 189.3560 15.29482394 82053
FLOCK 4G-4              
1 62659U 25009BC  26188.68240153  .00023450  00000+0  76498-3 0  9998
2 62659  97.3943 269.9291 0003971 214.4154 145.6831 15.31785378139643
FLOCK 4G-6              
1 62660U 25009BD  26188.75453407  .00006067  00000+0  21230-3 0  9995
2 62660  97.3933 270.0644 0002159 233.6082 126.4960 15.29883935139644
FLOCK 4G-2              
1 62661U 25009BE  26188.74981578  .00006593  00000+0  22805-3 0  9993
2 62661  97.4002 270.6918 0003012 232.2993 127.7975 15.30226159139672
FLOCK 4G-5              
1 62663U 25009BG  26188.68220034  .00005958  00000+0  20266-3 0  9994
2 62663  97.4020 271.0158 0002763 208.2331 151.8760 15.30815633 82078
FLOCK 4G-1              
1 62666U 25009BK  26188.73402794  .00006871  00000+0  23859-3 0  9994
2 62666  97.4015 270.6552 0003286 229.0976 130.9980 15.30085707 82056
FLOCK 4G-14             
1 62667U 25009BL  26188.76292368  .00007340  00000+0  25821-3 0  9995
2 62667  97.4017 270.4853 0003433 222.9809 137.1164 15.29633971 82044
FLOCK 4G-10             
1 62670U 25009BP  26188.77432770  .00006985  00000+0  24514-3 0  9995
2 62670  97.3916 269.8031 0003055 246.2016 113.8904 15.29731919139681
FLOCK 4G-36             
1 62675U 25009BU  26188.76872080  .00007384  00000+0  25919-3 0  9995
2 62675  97.4005 270.4130 0003600 230.0851 130.0073 15.29705114 82041
FLOCK 4G-15             
1 62678U 25009BX  26188.77609227  .00007498  00000+0  26242-3 0  9996
2 62678  97.4009 270.5617 0003832 226.6941 133.3980 15.29795145139697
FLOCK 4G-30             
1 62679U 25009BY  26188.73834625  .00026327  00000+0  81210-3 0  9993
2 62679  97.3909 270.0124 0003558 222.6315 137.4652 15.33553878139691
FLOCK 4G-18             
1 62680U 25009BZ  26188.74431167  .00023362  00000+0  76081-3 0  9996
2 62680  97.4004 270.4239 0005376 236.6626 123.4101 15.31834800139689
