{"fetched_at":"2026-07-08T07:03:36.533Z","source":"https://celestrak.org/NORAD/elements/gp.php?GROUP=planet&FORMAT=JSON","constellation":"superdove","records":[{"OBJECT_NAME":"FLOCK 4G-25","OBJECT_ID":"2025-009AP","EPOCH":"2026-07-07T19:07:05.809728","CLASSIFICATION_TYPE":"U","MEAN_MOTION":15.29904182,"ECCENTRICITY":0.000171,"INCLINATION":97.4007,"RA_OF_ASC_NODE":270.7887,"ARG_OF_PERICENTER":181.0094,"MEAN_ANOMALY":179.1143,"EPHEMERIS_TYPE":0,"NORAD_CAT_ID":62646,"ELEMENT_SET_NO":999,"REV_AT_EPOCH":8207,"BSTAR":0.00025453,"MEAN_MOTION_DOT":0.00007294,"MEAN_MOTION_DDOT":0},{"OBJECT_NAME":"FLOCK 4G-23","OBJECT_ID":"2025-009AQ","EPOCH":"2026-07-07T17:30:09.387648","CLASSIFICATION_TYPE":"U","MEAN_MOTION":15.34341441,"ECCENTRICITY":0.0002752,"INCLINATION":97.3923,"RA_OF_ASC_NODE":270.4042,"ARG_OF_PERICENTER":187.1924,"MEAN_ANOMALY":172.9279,"EPHEMERIS_TYPE":0,"NORAD_CAT_ID":62647,"ELEMENT_SET_NO":999,"REV_AT_EPOCH":8207,"BSTAR":0.00081926,"MEAN_MOTION_DOT":0.0002723,"MEAN_MOTION_DDOT":0},{"OBJECT_NAME":"FLOCK 4G-34","OBJECT_ID":"2025-009AT","EPOCH":"2026-07-07T19:11:49.835040","CLASSIFICATION_TYPE":"U","MEAN_MOTION":15.29676479,"ECCENTRICITY":0.0001665,"INCLINATION":97.3956,"RA_OF_ASC_NODE":270.2863,"ARG_OF_PERICENTER":181.3894,"MEAN_ANOMALY":178.7342,"EPHEMERIS_TYPE":0,"NORAD_CAT_ID":62650,"ELEMENT_SET_NO":999,"REV_AT_EPOCH":8206,"BSTAR":0.00022926,"MEAN_MOTION_DOT":0.00006516,"MEAN_MOTION_DDOT":0},{"OBJECT_NAME":"FLOCK 4G-21","OBJECT_ID":"2025-009AU","EPOCH":"2026-07-07T11:19:50.424960","CLASSIFICATION_TYPE":"U","MEAN_MOTION":15.32490105,"ECCENTRICITY":0.00024128,"INCLINATION":97.3986,"RA_OF_ASC_NODE":270.926,"ARG_OF_PERICENTER":213.2925,"MEAN_ANOMALY":146.8165,"EPHEMERIS_TYPE":0,"NORAD_CAT_ID":62651,"ELEMENT_SET_NO":999,"REV_AT_EPOCH":8206,"BSTAR":0.0008402851,"MEAN_MOTION_DOT":0.00026346,"MEAN_MOTION_DDOT":0},{"OBJECT_NAME":"FLOCK 4G-31","OBJECT_ID":"2025-009AV","EPOCH":"2026-07-07T18:19:19.532064","CLASSIFICATION_TYPE":"U","MEAN_MOTION":15.29482394,"ECCENTRICITY":0.0001219,"INCLINATION":97.3963,"RA_OF_ASC_NODE":270.2235,"ARG_OF_PERICENTER":170.7703,"MEAN_ANOMALY":189.356,"EPHEMERIS_TYPE":0,"NORAD_CAT_ID":62652,"ELEMENT_SET_NO":999,"REV_AT_EPOCH":8205,"BSTAR":0.00024839,"MEAN_MOTION_DOT":0.00007024,"MEAN_MOTION_DDOT":0},{"OBJECT_NAME":"FLOCK 4G-4","OBJECT_ID":"2025-009BC","EPOCH":"2026-07-07T16:22:39.492192","CLASSIFICATION_TYPE":"U","MEAN_MOTION":15.31785378,"ECCENTRICITY":0.0003971,"INCLINATION":97.3943,"RA_OF_ASC_NODE":269.9291,"ARG_OF_PERICENTER":214.4154,"MEAN_ANOMALY":145.6831,"EPHEMERIS_TYPE":0,"NORAD_CAT_ID":62659,"ELEMENT_SET_NO":999,"REV_AT_EPOCH":13964,"BSTAR":0.00076498,"MEAN_MOTION_DOT":0.0002345,"MEAN_MOTION_DDOT":0},{"OBJECT_NAME":"FLOCK 4G-6","OBJECT_ID":"2025-009BD","EPOCH":"2026-07-07T18:06:31.743648","CLASSIFICATION_TYPE":"U","MEAN_MOTION":15.29883935,"ECCENTRICITY":0.0002159,"INCLINATION":97.3933,"RA_OF_ASC_NODE":270.0644,"ARG_OF_PERICENTER":233.6082,"MEAN_ANOMALY":126.496,"EPHEMERIS_TYPE":0,"NORAD_CAT_ID":62660,"ELEMENT_SET_NO":999,"REV_AT_EPOCH":13964,"BSTAR":0.0002123,"MEAN_MOTION_DOT":0.00006067,"MEAN_MOTION_DDOT":0},{"OBJECT_NAME":"FLOCK 4G-2","OBJECT_ID":"2025-009BE","EPOCH":"2026-07-07T17:59:44.083392","CLASSIFICATION_TYPE":"U","MEAN_MOTION":15.30226159,"ECCENTRICITY":0.0003012,"INCLINATION":97.4002,"RA_OF_ASC_NODE":270.6918,"ARG_OF_PERICENTER":232.2993,"MEAN_ANOMALY":127.7975,"EPHEMERIS_TYPE":0,"NORAD_CAT_ID":62661,"ELEMENT_SET_NO":999,"REV_AT_EPOCH":13967,"BSTAR":0.00022805,"MEAN_MOTION_DOT":0.00006593,"MEAN_MOTION_DDOT":0},{"OBJECT_NAME":"FLOCK 4G-5","OBJECT_ID":"2025-009BG","EPOCH":"2026-07-07T16:22:22.109376","CLASSIFICATION_TYPE":"U","MEAN_MOTION":15.30815633,"ECCENTRICITY":0.0002763,"INCLINATION":97.402,"RA_OF_ASC_NODE":271.0158,"ARG_OF_PERICENTER":208.2331,"MEAN_ANOMALY":151.876,"EPHEMERIS_TYPE":0,"NORAD_CAT_ID":62663,"ELEMENT_SET_NO":999,"REV_AT_EPOCH":8207,"BSTAR":0.00020266,"MEAN_MOTION_DOT":0.00005958,"MEAN_MOTION_DDOT":0},{"OBJECT_NAME":"FLOCK 4G-1","OBJECT_ID":"2025-009BK","EPOCH":"2026-07-07T17:37:00.014016","CLASSIFICATION_TYPE":"U","MEAN_MOTION":15.30085707,"ECCENTRICITY":0.0003286,"INCLINATION":97.4015,"RA_OF_ASC_NODE":270.6552,"ARG_OF_PERICENTER":229.0976,"MEAN_ANOMALY":130.998,"EPHEMERIS_TYPE":0,"NORAD_CAT_ID":62666,"ELEMENT_SET_NO":999,"REV_AT_EPOCH":8205,"BSTAR":0.00023859,"MEAN_MOTION_DOT":0.00006871,"MEAN_MOTION_DDOT":0},{"OBJECT_NAME":"FLOCK 4G-14","OBJECT_ID":"2025-009BL","EPOCH":"2026-07-07T18:18:36.605952","CLASSIFICATION_TYPE":"U","MEAN_MOTION":15.29633971,"ECCENTRICITY":0.0003433,"INCLINATION":97.4017,"RA_OF_ASC_NODE":270.4853,"ARG_OF_PERICENTER":222.9809,"MEAN_ANOMALY":137.1164,"EPHEMERIS_TYPE":0,"NORAD_CAT_ID":62667,"ELEMENT_SET_NO":999,"REV_AT_EPOCH":8204,"BSTAR":0.00025821,"MEAN_MOTION_DOT":0.0000734,"MEAN_MOTION_DDOT":0},{"OBJECT_NAME":"FLOCK 4G-10","OBJECT_ID":"2025-009BP","EPOCH":"2026-07-07T18:35:01.913280","CLASSIFICATION_TYPE":"U","MEAN_MOTION":15.29731919,"ECCENTRICITY":0.0003055,"INCLINATION":97.3916,"RA_OF_ASC_NODE":269.8031,"ARG_OF_PERICENTER":246.2016,"MEAN_ANOMALY":113.8904,"EPHEMERIS_TYPE":0,"NORAD_CAT_ID":62670,"ELEMENT_SET_NO":999,"REV_AT_EPOCH":13968,"BSTAR":0.00024514,"MEAN_MOTION_DOT":0.00006985,"MEAN_MOTION_DDOT":0},{"OBJECT_NAME":"FLOCK 4G-36","OBJECT_ID":"2025-009BU","EPOCH":"2026-07-07T18:26:57.477120","CLASSIFICATION_TYPE":"U","MEAN_MOTION":15.29705114,"ECCENTRICITY":0.00036,"INCLINATION":97.4005,"RA_OF_ASC_NODE":270.413,"ARG_OF_PERICENTER":230.0851,"MEAN_ANOMALY":130.0073,"EPHEMERIS_TYPE":0,"NORAD_CAT_ID":62675,"ELEMENT_SET_NO":999,"REV_AT_EPOCH":8204,"BSTAR":0.00025919,"MEAN_MOTION_DOT":0.00007384,"MEAN_MOTION_DDOT":0},{"OBJECT_NAME":"FLOCK 4G-15","OBJECT_ID":"2025-009BX","EPOCH":"2026-07-07T18:37:34.372128","CLASSIFICATION_TYPE":"U","MEAN_MOTION":15.29795145,"ECCENTRICITY":0.0003832,"INCLINATION":97.4009,"RA_OF_ASC_NODE":270.5617,"ARG_OF_PERICENTER":226.6941,"MEAN_ANOMALY":133.398,"EPHEMERIS_TYPE":0,"NORAD_CAT_ID":62678,"ELEMENT_SET_NO":999,"REV_AT_EPOCH":13969,"BSTAR":0.00026242,"MEAN_MOTION_DOT":0.00007498,"MEAN_MOTION_DDOT":0},{"OBJECT_NAME":"FLOCK 4G-30","OBJECT_ID":"2025-009BY","EPOCH":"2026-07-07T17:43:13.116000","CLASSIFICATION_TYPE":"U","MEAN_MOTION":15.33553878,"ECCENTRICITY":0.0003558,"INCLINATION":97.3909,"RA_OF_ASC_NODE":270.0124,"ARG_OF_PERICENTER":222.6315,"MEAN_ANOMALY":137.4652,"EPHEMERIS_TYPE":0,"NORAD_CAT_ID":62679,"ELEMENT_SET_NO":999,"REV_AT_EPOCH":13969,"BSTAR":0.0008121,"MEAN_MOTION_DOT":0.00026327,"MEAN_MOTION_DDOT":0},{"OBJECT_NAME":"FLOCK 4G-18","OBJECT_ID":"2025-009BZ","EPOCH":"2026-07-07T17:51:48.528288","CLASSIFICATION_TYPE":"U","MEAN_MOTION":15.318348,"ECCENTRICITY":0.0005376,"INCLINATION":97.4004,"RA_OF_ASC_NODE":270.4239,"ARG_OF_PERICENTER":236.6626,"MEAN_ANOMALY":123.4101,"EPHEMERIS_TYPE":0,"NORAD_CAT_ID":62680,"ELEMENT_SET_NO":999,"REV_AT_EPOCH":13968,"BSTAR":0.00076081,"MEAN_MOTION_DOT":0.00023362,"MEAN_MOTION_DDOT":0}]}
